     2.11           N: GPS NAV DATA                         RINEX VERSION / TYPE
teqc  2019Feb25                         20221121 12:23:11UTCPGM / RUN BY / DATE
OSX ker:10.11.6|Core i5|gcc 4.3 -m64|OSX ker:10.10+|=+      COMMENT
    7.4506D-09  2.2352D-08 -5.9605D-08 -1.1921D-07          ION ALPHA
    8.6016D+04  8.1920D+04 -1.3107D+05 -5.2429D+05          ION BETA
    9.313225746155D-10 2.664535259100D-15   503808     1531 DELTA-UTC: A0,A1,T,W
                                                            END OF HEADER
 3 09  5 12 23 59 44.0 3.922055475414D-04 5.229594535194D-12 0.000000000000D+00
    0.000000000000D+00 3.000000000000D+00 5.639520622956D-09-6.108130107222D-01
    1.974403858185D-07 1.185052201618D-02 5.826354026794D-06 5.153745622635D+03
    2.591840000000D+05 0.000000000000D+00-1.306084050637D+00 1.993030309677D-07
    9.258578596847D-01 2.461250000000D+02 9.001414348924D-01-8.645360113950D-09
    5.750239520557D-11 1.000000000000D+00 1.531000000000D+03 0.000000000000D+00
    2.000000000000D+00 0.000000000000D+00-4.190951585770D-09 0.000000000000D+00
    2.584560000000D+05 4.000000000000D+00
